     2.11           N: GPS NAV DATA                         RINEX VERSION / TYPE
teqc  2019Feb25                         20230504 17:04:49UTCPGM / RUN BY / DATE
Linux2.6.32-573.12.1.el6.x86_64|x86_64|gcc|Win64-MinGW64|=+ COMMENT
                                                            END OF HEADER
 2 21 10  4 18  0  0.0-6.357850506902D-04-1.932676241267D-12 0.000000000000D+00
    3.000000000000D+01 9.165625000000D+01 4.542689221240D-09-3.891629819488D-01
    4.703179001808D-06 2.031714073382D-02 8.793547749519D-06 5.153767536163D+03
    1.512000000000D+05-3.185123205185D-07 3.815129166415D-01 1.545995473862D-07
    9.643664775747D-01 2.205312500000D+02-1.489331632801D+00-8.436065681712D-09
    6.064538326650D-10 1.000000000000D+00 2.178000000000D+03 0.000000000000D+00
    2.000000000000D+00 0.000000000000D+00-1.769512891769D-08 3.000000000000D+01
    1.440180000000D+05 4.000000000000D+00
15 21 10  4 18  0  0.0-1.163678243756D-04 2.728484105319D-12 0.000000000000D+00
    2.100000000000D+01-8.518750000000D+01 5.306292456951D-09 6.926500978282D-01
   -4.194676876068D-06 1.375648973044D-02 1.112185418606D-05 5.153690021515D+03
    1.512000000000D+05-1.266598701477D-07 2.431402905302D+00 9.313225746155D-08
    9.296110696439D-01 1.518750000000D+02 1.035010696533D+00-8.626787911772D-09
   -4.728768400756D-10 1.000000000000D+00 2.178000000000D+03 0.000000000000D+00
    2.000000000000D+00 0.000000000000D+00-1.071020960808D-08 2.100000000000D+01
    1.440180000000D+05 4.000000000000D+00
14 21 10  4 18  0  0.0-1.225154846907D-05-7.730704965070D-12 0.000000000000D+00
    8.200000000000D+01-2.884375000000D+01 5.001279751948D-09-2.039031147135D+00
   -1.482665538788D-06 1.123988186009D-03 3.842636942863D-06 5.153638435364D+03
    1.512000000000D+05-2.793967723846D-08-1.594792857318D+00-2.235174179077D-08
    9.550491186807D-01 3.027500000000D+02 3.129753500419D+00-8.489282184107D-09
   -2.589393572922D-10 1.000000000000D+00 2.178000000000D+03 0.000000000000D+00
    2.000000000000D+00 0.000000000000D+00-7.916241884232D-09 3.380000000000D+02
    1.440180000000D+05 4.000000000000D+00
28 21 10  4 18  0  0.0 4.887902177870D-04-7.275957614183D-12 0.000000000000D+00
    6.500000000000D+01-3.471875000000D+01 4.546975114050D-09 2.100059073056D+00
   -1.924112439156D-06 1.746920263395D-02 3.686174750328D-06 5.153713268280D+03
    1.512000000000D+05 2.384185791016D-07-1.543368786705D+00-3.911554813385D-08
    9.707304520998D-01 3.086250000000D+02-1.330656305256D+00-8.032120284336D-09
   -4.285892810353D-10 1.000000000000D+00 2.178000000000D+03 0.000000000000D+00
    4.000000000000D+00 6.300000000000D+01-1.117587089539D-08 6.500000000000D+01
    1.440180000000D+05 4.000000000000D+00
 6 21 10  4 18  0  0.0 8.761603385210D-05 7.958078640513D-12 0.000000000000D+00
    7.500000000000D+01 9.828125000000D+01 3.957664852627D-09-2.779370380390D-01
    4.924833774567D-06 2.230068785138D-03 8.247792720795D-06 5.153589658737D+03
    1.512000000000D+05-5.401670932770D-08 4.597167296642D-01-7.450580596924D-09
    9.852411555459D-01 2.314687500000D+02-1.027584713702D+00-7.920329913532D-09
    5.235932383315D-10 1.000000000000D+00 2.178000000000D+03 0.000000000000D+00
    2.000000000000D+00 0.000000000000D+00 3.725290298462D-09 7.500000000000D+01
    1.440180000000D+05 4.000000000000D+00
 7 21 10  4 18  0  0.0 2.568676136434D-04 6.480149750132D-12 0.000000000000D+00
    8.900000000000D+01 7.262500000000D+01 4.721268088338D-09-1.261945215506D+00
    3.794208168983D-06 1.526793465018D-02 8.745118975639D-06 5.153737804413D+03
    1.512000000000D+05 3.371387720108D-07-2.677629176609D+00 9.499490261078D-08
    9.516324705807D-01 2.050625000000D+02-2.304158393171D+00-8.153553913962D-09
    4.235890727566D-10 1.000000000000D+00 2.178000000000D+03 0.000000000000D+00
    2.800000000000D+00 0.000000000000D+00-1.117587089539D-08 8.900000000000D+01
    1.440180000000D+05 4.000000000000D+00
24 21 10  4 18  0  0.0 2.478142268956D-04 6.934897101019D-12 0.000000000000D+00
    8.400000000000D+01 7.425000000000D+01 5.294863409457D-09-2.802405400691D-01
    3.885477781296D-06 1.168678619433D-02 9.162351489067D-06 5.153711071014D+03
    1.512000000000D+05 2.793967723846D-08-2.758084789211D+00 1.974403858185D-07
    9.351296018672D-01 1.875000000000D+02 7.623020662666D-01-8.636788328330D-09
    4.218032840856D-10 1.000000000000D+00 2.178000000000D+03 0.000000000000D+00
    2.800000000000D+00 0.000000000000D+00 2.793967723846D-09 8.400000000000D+01
    1.440180000000D+05 4.000000000000D+00
18 21 10  4 18  0  0.0 3.145048394799D-04-4.774847184308D-12 0.000000000000D+00
    1.770000000000D+02 1.061250000000D+02 4.352681306648D-09-3.472438002352D-01
    5.479902029037D-06 1.996927312575D-03 8.028000593185D-06 5.153645086288D+03
    1.512000000000D+05 7.450580596924D-08 4.777604914536D-01-1.490116119385D-08
    9.695566592980D-01 2.271875000000D+02 2.981497365093D+00-8.139624762329D-09
    5.853815263474D-10 1.000000000000D+00 2.178000000000D+03 0.000000000000D+00
    2.000000000000D+00 0.000000000000D+00-8.381903171539D-09 6.890000000000D+02
    1.443660000000D+05 4.000000000000D+00
23 21 10  4 18  0  0.0 4.923157393932D-05-4.774847184308D-12 0.000000000000D+00
    1.910000000000D+02-3.856250000000D+01 4.977707341491D-09-1.080308496328D+00
   -2.020969986916D-06 1.744529232383D-03 2.501532435417D-06 5.153669910431D+03
    1.512000000000D+05-2.048909664154D-08 1.477454935300D+00 3.725290298462D-09
    9.653021585153D-01 3.339375000000D+02 2.705772897022D+00-8.572142778440D-09
   -8.821796034643D-11 1.000000000000D+00 2.178000000000D+03 0.000000000000D+00
    2.000000000000D+00 0.000000000000D+00-8.381903171539D-09 9.590000000000D+02
    1.485480000000D+05 4.000000000000D+00
12 21 10  4 18  0  0.0-1.067840494215D-04-5.456968210638D-12 0.000000000000D+00
    1.500000000000D+01-3.362500000000D+01 4.653050961107D-09-1.978156194168D+00
   -1.683831214905D-06 8.256381959654D-03 4.367902874947D-06 5.153663248062D+03
    1.512000000000D+05 1.527369022369D-07-1.565577887346D+00-1.862645149231D-09
    9.715983487311D-01 3.011250000000D+02 1.230611335970D+00-8.148910863418D-09
   -3.507288949806D-10 1.000000000000D+00 2.178000000000D+03 0.000000000000D+00
    2.000000000000D+00 0.000000000000D+00-1.257285475731D-08 1.500000000000D+01
    1.492020000000D+05 4.000000000000D+00
15 21 10  4 20  0  0.0-1.163478009403D-04 2.728484105319D-12 0.000000000000D+00
    2.700000000000D+01-9.540625000000D+01 5.192001982008D-09 1.742724555450D+00
   -5.025416612625D-06 1.375656400342D-02 1.095607876778D-05 5.153692569733D+03
    1.584000000000D+05-2.887099981308D-07 2.431340166597D+00-2.216547727585D-07
    9.296090215585D-01 1.561875000000D+02 1.035113074466D+00-8.373205920493D-09
   -2.971552348511D-10 1.000000000000D+00 2.178000000000D+03 0.000000000000D+00
    2.000000000000D+00 0.000000000000D+00-1.071020960808D-08 2.700000000000D+01
    1.512180000000D+05 4.000000000000D+00
 5 21 10  4 20  0  0.0-5.657644942403D-05-1.250555214938D-12 0.000000000000D+00
    5.500000000000D+01-3.137500000000D+01 5.078068664800D-09 3.025394169205D+00
   -1.739710569382D-06 6.084970547818D-03 2.188608050346D-06 5.153593307495D+03
    1.584000000000D+05 1.862645149231D-09 1.465790574507D+00-1.434236764908D-07
    9.574065365566D-01 3.372812500000D+02 1.002782668300D+00-8.511783121361D-09
   -6.750281176306D-11 1.000000000000D+00 2.178000000000D+03 0.000000000000D+00
    2.000000000000D+00 0.000000000000D+00-1.117587089539D-08 5.500000000000D+01
    1.512180000000D+05 4.000000000000D+00
24 21 10  4 20  0  0.0 2.478635869920D-04 6.934897101019D-12 0.000000000000D+00
    1.000000000000D+02 8.093750000000D+01 5.275219734076D-09 7.698792724019D-01
    4.420056939125D-06 1.168798934668D-02 9.553506970406D-06 5.153713567734D+03
    1.584000000000D+05-1.024454832077D-07-2.758146359044D+00 1.527369022369D-07
    9.351325233146D-01 1.810312500000D+02 7.623450819098D-01-8.587500561011D-09
    3.332281660049D-10 1.000000000000D+00 2.178000000000D+03 0.000000000000D+00
    2.800000000000D+00 0.000000000000D+00 2.793967723846D-09 1.000000000000D+02
    1.512180000000D+05 4.000000000000D+00
13 21 10  4 20  0  0.0 1.948638819158D-04 5.456968210638D-12 0.000000000000D+00
    9.600000000000D+01-5.443750000000D+01 4.130172038244D-09 2.096419508425D+00
   -2.821907401085D-06 5.530726863071D-03 1.250393688679D-05 5.153692750931D+03
    1.584000000000D+05-7.264316082001D-08 2.684477109304D+00-1.154839992523D-07
    9.687031343738D-01 1.431562500000D+02 9.684388201869D-01-7.745322623776D-09
   -1.128618440060D-10 1.000000000000D+00 2.178000000000D+03 0.000000000000D+00
    2.000000000000D+00 0.000000000000D+00-1.117587089539D-08 9.600000000000D+01
    1.512180000000D+05 4.000000000000D+00
28 21 10  4 20  0  0.0 4.887380637228D-04-7.275957614183D-12 0.000000000000D+00
    6.600000000000D+01-3.743750000000D+01 4.643050544549D-09-3.132944761119D+00
   -1.860782504082D-06 1.747008878738D-02 3.555789589882D-06 5.153711481094D+03
    1.584000000000D+05 2.253800630569D-07-1.543426923069D+00 1.080334186554D-07
    9.707274867648D-01 3.154375000000D+02-1.330679812887D+00-8.025334287386D-09
   -3.518003681831D-10 1.000000000000D+00 2.178000000000D+03 0.000000000000D+00
    4.000000000000D+00 6.300000000000D+01-1.117587089539D-08 6.600000000000D+01
    1.512180000000D+05 4.000000000000D+00
20 21 10  4 20  0  0.0 5.188048817217D-04-2.273736754432D-13 0.000000000000D+00
    6.500000000000D+01-3.875000000000D+00 5.483085535378D-09 1.589438302119D+00
   -3.855675458908D-07 5.521376035176D-03 1.845881342888D-06 5.153661731720D+03
    1.584000000000D+05 5.401670932770D-08 1.354185029688D+00 4.842877388000D-08
    9.395043515902D-01 3.322500000000D+02 2.993378313833D+00-8.838939605885D-09
   -8.571785620706D-12 1.000000000000D+00 2.178000000000D+03 0.000000000000D+00
    2.000000000000D+00 0.000000000000D+00-8.381903171539D-09 6.500000000000D+01
    1.512180000000D+05 4.000000000000D+00
